ZHONGXING-2D            
1 43920U 19001A   25093.01888944 -.00000347  00000+0  00000+0 0  9993
2 43920   0.0403 290.8046 0001087 264.7659 132.8532  1.00273169 22930
HELLAS-SAT 4 & SGS-1    
1 44034U 19007A   25093.16364273  .00000142  00000+0  00000+0 0  9998
2 44034   0.0706 124.8761 0003878  20.3007 144.4799  1.00270545 22935
GSAT-31                 
1 44035U 19007B   25092.76502860  .00000115  00000+0  00000+0 0  9990
2 44035   0.0120 216.2665 0004037  95.5474 202.8139  1.00273781 22555
NUSANTARA SATU          
1 44048U 19009A   25092.78154782 -.00000244  00000+0  00000+0 0  9998
2 44048   0.0313 135.2023 0002321 316.5315 166.9808  1.00269764 22352
ZHONGXING-6C            
1 44067U 19012A   25093.20114097 -.00000346  00000+0  00000+0 0  9999
2 44067   0.0567  67.6729 0005676 310.6571  16.2745  1.00271922 22323
WGS 10 (USA 291)        
1 44071U 19014A   25092.59902889  .00000037  00000+0  00000+0 0  9997
2 44071   0.0136 183.5817 0000128 207.2030  76.3298  1.00274017 22210
TIANLIAN 2-01           
1 44076U 19017A   25092.73760422 -.00000116  00000+0  00000+0 0  9995
2 44076   0.4414  90.6750 0003527 258.0385 185.1477  1.00270754 22239
ARABSAT-6A              
1 44186U 19021A   25093.11560773  .00000143  00000+0  00000+0 0  9991
2 44186   0.0520 350.5818 0002126   4.9211 268.3122  1.00264718 21736
BEIDOU-3 IGSO-1         
1 44204U 19023A   25092.75719515 -.00000223  00000+0  00000+0 0  9993
2 44204  58.0737  42.2001 0021426 227.7174 313.2252  1.00267483  2797
BEIDOU-2 G8             
1 44231U 19027A   25092.70808779 -.00000257  00000+0  00000+0 0  9990
2 44231   1.5010  74.7066 0005537 252.9357 263.0676  1.00269134 21667
YAMAL 601               
1 44307U 19031A   25093.16322608  .00000109  00000+0  00000+0 0  9997
2 44307   0.0155 200.3098 0002585 163.5625 295.6194  1.00272025 21492
AT&T T-16               
1 44333U 19034A   25093.44658573 -.00000126  00000+0  00000+0 0  9993
2 44333   0.0334  91.2371 0001469  88.6672  72.0081  1.00269492 21216
EUTELSAT 7C             
1 44334U 19034B   25093.18233182  .00000037  00000+0  00000+0 0  9990
2 44334   0.0679 191.2058 0003170 163.9991 269.1704  1.00270177 21712
BEIDOU-3 IGSO-2         
1 44337U 19035A   25092.78777778 -.00000129  00000+0  00000+0 0  9996
2 44337  55.1988 162.7287 0035530 207.7906 221.9569  1.00294464 21253
COSMOS 2539             
1 44457U 19048A   25093.30322730  .00000070  00000+0  00000+0 0  9990
2 44457   0.0198 125.3010 0000279  51.7554 135.9831  1.00272722 20804
EDRS-C                  
1 44475U 19049A   25092.38288380  .00000146  00000+0  00000+0 0  9994
2 44475   0.0913 254.1197 0000677 153.1536 312.7219  1.00274752 20782
INTELSAT 39 (IS-39)     
1 44476U 19049B   25092.87822709  .00000024  00000+0  00000+0 0  9993
2 44476   0.0166 167.4896 0000646   0.0944  41.9674  1.00271349 20701
AMOS-17                 
1 44479U 19050A   25092.87108193  .00000099  00000+0  00000+0 0  9994
2 44479   0.0355 300.5887 0001785  75.3233 146.1149  1.00271796 20762
AEHF-5 (USA 292)        
1 44481U 19051A   25092.80056973 -.00000244  00000+0  00000+0 0  9992
2 44481   2.1274 313.5041 0058318  14.5592 241.5247  1.00273450 20848
EUTELSAT 5 WEST B       
1 44624U 19067A   25092.39455581 -.00000050  00000+0  00000+0 0  9995
2 44624   0.0656   5.4004 0002991   5.2233 317.3890  1.00272176 20018
MEV-1                   
1 44625U 19067B   25089.17128122 -.00000205  00000+0  00000+0 0  9998
2 44625   0.0921  99.7900 0002296 280.8130 201.3339  1.00269453 19944
TJS-4                   
1 44637U 19070A   25093.48316234 -.00000179  00000+0  00000+0 0  9997
2 44637   0.0448 312.1063 0002958  96.3909  40.9315  1.00266047 20121
BEIDOU-3 IGSO-3         
1 44709U 19073A   25091.93077387 -.00000177  00000+0  00000+0 0  9999
2 44709  55.5568 285.6480 0042523 181.6599 178.2875  1.00268647 20035
TIBA-1                  
1 44800U 19080A   25093.11665029  .00000145  00000+0  00000+0 0  9991
2 44800   0.0574   4.1004 0002157   0.2941 264.8076  1.00268719 19663
INMARSAT GX5            
1 44801U 19080B   25093.32603190  .00000063  00000+0  00000+0 0  9995
2 44801   0.0553  30.8487 0001968 340.1586 309.2484  1.00270892 19686
JCSAT-18 (KACIFIC 1)    
1 44868U 19091A   25092.70808779 -.00000211  00000+0  00000+0 0  9997
2 44868   0.0379 356.3387 0000474 268.0221 331.8205  1.00270174 19590
ELEKTRO-L 3             
1 44903U 19095A   25092.71919789 -.00000107  00000+0  00000+0 0  9990
2 44903   0.0717 308.8173 0000784  34.0738 183.3627  1.00271208 19293
SHIJIAN-20 (SJ-20)      
1 44910U 19097A   25092.79360750 -.00000181  00000+0  00000+0 0  9998
2 44910   3.7889  80.4339 0001259 310.6343 166.1609  1.00425565 19286
TJS-5                   
1 44978U 20002A   25093.48794075 -.00000354  00000+0  00000+0 0  9990
2 44978   0.3112 268.0865 0002607 321.1250 246.0169  1.00270813 19285
GSAT-30                 
1 45026U 20005A   25092.88864351 -.00000175  00000+0  00000+0 0  9997
2 45026   0.0474  90.8742 0001922 341.7785 161.7185  1.00272606 19118
EUTELSAT KONNECT        
1 45027U 20005B   25093.32524997  .00000038  00000+0  00000+0 0  9994
2 45027   0.0643  88.6666 0001081 196.5310  30.9868  1.00269490 19902
JCSAT-17                
1 45245U 20013A   25092.76433924 -.00000327  00000+0  00000+0 0  9993
2 45245   5.4632 352.5628 0003701 359.1994 250.7062  1.00272706 18819
GEO-KOMPSAT-2B          
1 45246U 20013B   25092.83136936 -.00000354  00000+0  00000+0 0  9995
2 45246   0.0410 357.4509 0001458 326.1024 295.4059  1.00271324 18864
BEIDOU-3 G2             
1 45344U 20017A   25092.65267847 -.00000150  00000+0  00000+0 0  9998
2 45344   2.7447  38.7307 0002886 321.5462 145.9564  1.00271729 18845
AEHF-6 (USA 298)        
1 45465U 20022B   25092.76433924 -.00000311  00000+0  00000+0 0  9990
2 45465   3.5460 298.2257 0047447  12.7178 293.2839  1.00268696 18598
BEIDOU-3 G3             
1 45807U 20040A   25092.81694881 -.00000363  00000+0  00000+0 0  9994
2 45807   1.3857  62.0116 0002814 315.8982 218.1312  1.00271834 17650
APSTAR-6D               
1 45863U 20045A   25092.88850200 -.00000327  00000+0  00000+0 0  9997
2 45863   0.0543  98.3858 0002194 333.9997 212.9479  1.00273291 17434
KOREASAT 116            
1 45920U 20048A   25093.06122065 -.00000372  00000+0  00000+0 0  9996
2 45920   0.0126 204.4369 0000869 160.0674 325.3862  1.00270208 17227
EXPRESS 103             
1 45985U 20053A   25093.48576875 -.00000292  00000+0  00000+0 0  9992
2 45985   0.0166 246.6019 0000603  28.9380 187.8929  1.00271850 17234
EXPRESS 80              
1 45986U 20053B   25092.24771759 -.00000143  00000+0  00000+0 0  9999
2 45986   0.0230 211.5537 0000051 334.2689 174.1774  1.00270105 17212
BSAT-4B                 
1 46112U 20056A   25092.81694872 -.00000360  00000+0  00000+0 0  9998
2 46112   0.0692 110.8960 0002119 333.1981 151.2277  1.00272430 16976
MEV-2                   
1 46113U 20056B   25092.39516398 -.00000019  00000+0  00000+0 0  9999
2 46113   0.0152 165.3423 0000921 175.6374 351.2836  1.00271360 17763
GALAXY 30 (G-30)        
1 46114U 20056C   25093.19419634  .00000026  00000+0  00000+0 0  9991
2 46114   0.0189 220.3432 0001947 148.5465 127.7771  1.00269801 16990
GAOFEN-13 01            
1 46610U 20071A   25092.82361421 -.00000372  00000+0  00000+0 0  9993
2 46610   0.4109  84.6203 0017439 125.5786  35.6783  1.00273590 16505
TIANTONG-1 2            
1 46916U 20082A   25092.82925756 -.00000366  00000+0  00000+0 0  9994
2 46916   1.6594 297.3727 0002344  68.4737 249.0128  1.00275335 16232
LUCAS (JDRS-1)          
1 47202U 20089A   25092.80148010 -.00000245  00000+0  00000+0 0  9994
2 47202   0.0591  85.3764 0002569 276.3728 208.9289  1.00272189 16007
SXM-7                   
1 47240U 20096A   25090.47556818 -.00000209  00000+0  00000+0 0  9994
2 47240   0.0141 146.4673 0004327 355.5679 133.0705  1.00272910  3017
CMS-01                  
1 47256U 20099A   25092.79481611 -.00000174  00000+0  00000+0 0  9990
2 47256   0.0728  88.7016 0006498 200.5357 271.2633  1.00270477 15785
TURKSAT 5A              
1 47306U 21001A   25093.11569461  .00000144  00000+0  00000+0 0  9993
2 47306   0.0309  93.6023 0000270 132.2958  38.3479  1.00270749 15578
TIANTONG-1 3            
1 47321U 21003A   25092.63239266 -.00000165  00000+0  00000+0 0  9999
2 47321   2.3337 318.9590 0003927  22.6583 158.7451  1.00270348 15540
TJS-6                   
1 47613U 21010A   25092.64095029  .00000034  00000+0  00000+0 0  9993
2 47613   0.3000  91.5804 0001040 152.3889 356.4754  1.00271627 15392
SBIRS GEO-5 (USA 315)   
1 48618U 21042A   25092.74279219  .00000105  00000+0  00000+0 0  9999
2 48618   5.7073 326.5207 0002167  29.7240 123.3607  1.00272479 14342
FENGYUN 4B              
1 48808U 21047A   25092.88864351 -.00000340  00000+0  00000+0 0  9999
2 48808   0.2027 276.1092 0001289  39.3795 300.4171  1.00278595 14147
SXM-8                   
1 48838U 21049A   25092.52143762 -.00000213  00000+0  00000+0 0  9990
2 48838   0.0147  18.0393 0002868  31.5731 244.0396  1.00270544 14177
TIANLIAN 1-05           
1 49011U 21063A   25093.30322730  .00000097  00000+0  00000+0 0  9990
2 49011   0.4600  80.5098 0002941 245.5433 351.7350  1.00272609 13666
STAR ONE D2             
1 49055U 21069A   25093.47056854 -.00000277  00000+0  00000+0 0  9994
2 49055   0.0242 182.9889 0001331 219.8040 248.5864  1.00278013 13496
EUTELSAT QUANTUM        
1 49056U 21069B   25092.76392718  .00000116  00000+0  00000+0 0  9999
2 49056   0.0331 288.6850 0001868  59.5909 165.7577  1.00272344 13511
ZHONGXING-2E            
1 49062U 21071A   25092.87753100 -.00000301  00000+0  00000+0 0  9994
2 49062   0.0386 313.2159 0001444 161.4041 130.7838  1.00273156 13610
TJS-7                   
1 49115U 21077A   25093.25961079 -.00000135  00000+0  00000+0 0  9993
2 49115   0.2255  89.1915 0000485 205.4989 251.0637  1.00273182 13409
